STARLINK-32201          
1 61512U 24183D   24333.83183246  .00004575  00000+0  12431-3 0  9997
2 61512  53.1599 155.8139 0001970  94.1198 266.0032 15.39619568  8101
STARLINK-32030          
1 61513U 24183E   24333.82264624  .00001867  00000+0  56647-4 0  9996
2 61513  53.1590 156.4716 0000818  85.8136 274.2963 15.39609010  8183
STARLINK-31837          
1 61514U 24183F   24333.91849238  .00000074  00000+0  93864-5 0  9999
2 61514  53.1593 154.9283 0001048  81.5421 278.5707 15.49312553  8227
STARLINK-32136          
1 61515U 24183G   24333.89254424  .00000983  00000+0  34561-4 0  9991
2 61515  53.1595 156.1989 0000865  87.3623 272.7481 15.39605860  8210
STARLINK-32047          
1 61516U 24183H   24333.78913167  .00001137  00000+0  28499-4 0  9991
2 61516  53.1591 155.5455 0000960  69.6309 290.4803 15.49309946  8197
STARLINK-31756          
1 61517U 24183J   24333.93360774 -.00002677  00000+0 -56962-4 0  9997
2 61517  53.1615 153.5507 0001137  94.5190 265.5945 15.39626290  8231
STARLINK-32172          
1 61518U 24183K   24333.91746094 -.00000143  00000+0  54739-5 0  9995
2 61518  53.1623 154.9195 0000926  80.1874 279.9239 15.49314281  8212
STARLINK-32338          
1 61519U 24183L   24333.91711897  .00000898  00000+0  24191-4 0  9993
2 61519  53.1594 154.9207 0000899  96.4007 263.7104 15.49307561  8216
STARLINK-32306          
1 61520U 24183M   24333.91679749 -.00001733  00000+0 -23129-4 0  9995
2 61520  53.1601 154.9176 0001079  70.9805 289.1321 15.49291066  8211
STARLINK-32297          
1 61521U 24183N   24333.85192268  .00000126  00000+0  10322-4 0  9999
2 61521  53.1606 155.2255 0000729  88.4266 271.6826 15.49312962  8210
STARLINK-32260          
1 61522U 24183P   24333.78706478 -.00001688  00000+0 -22273-4 0  9990
2 61522  53.1614 155.5325 0001777 111.4656 248.6542 15.49327107  8198
STARLINK-32305          
1 61523U 24183Q   24333.85089429  .00001982  00000+0  43701-4 0  9993
2 61523  53.1613 155.2200 0001078  88.6530 271.4602 15.49302659  8205
STARLINK-32296          
1 61524U 24183R   24333.85123355  .00000381  00000+0  14906-4 0  9998
2 61524  53.1571 155.2174 0000761  63.3071 296.8016 15.49315549  8209
STARLINK-32298          
1 61525U 24183S   24333.85054822  .00000307  00000+0  13564-4 0  9998
2 61525  53.1584 155.2155 0000750  94.2913 265.8182 15.49313692  8206
STARLINK-32293          
1 61526U 24183T   24333.85021193 -.00000372  00000+0  13737-5 0  9990
2 61526  53.1594 155.2151 0001257  87.4661 272.6492 15.49301550  8201
STARLINK-32313          
1 61527U 24183U   24333.84951779  .00000462  00000+0  16356-4 0  9990
2 61527  53.1576 155.2068 0000604  87.8769 272.2310 15.49314241  8203
STARLINK-32319          
1 61528U 24183V   24333.84985994 -.00000830  00000+0 -68647-5 0  9999
2 61528  53.1606 155.2098 0000790  38.2068 321.8997 15.49317906  8202
STARLINK-32351          
1 61529U 24183W   24333.81798603  .00003871  00000+0  10665-3 0  9997
2 61529  53.1611 156.4394 0000910  91.9478 268.1631 15.39634123  8149
STARLINK-32261          
1 61530U 24183X   24333.88789020 -.00001224  00000+0 -20600-4 0  9992
2 61530  53.1595 156.1651 0001091 125.4383 234.6724 15.39639853  8218
STARLINK-32358          
1 61531U 24183Y   24333.81335553 -.00000066  00000+0  83142-5 0  9997
2 61531  53.1614 156.4064 0000395 126.2183 233.8858 15.39610196  8099
STARLINK-11354 [DTC]    
1 61532U 24184A   24333.55107037  .00006788  00000+0  45532-4 0  9990
2 61532  53.1564  17.9364 0000739  73.1615 286.9487 15.76677669  8063
STARLINK-11323 [DTC]    
1 61533U 24184B   24333.60468500 -.00000294  00000+0  22079-5 0  9991
2 61533  53.1555  17.5539 0001501  70.4114 289.7068 15.76719379  7167
STARLINK-11338 [DTC]    
1 61534U 24184C   24334.11665941  .00001469  00000+0  12984-4 0  9994
2 61534  53.1508  15.0595 0001452  72.9520 287.1659 15.76709365  8156
STARLINK-11362 [DTC]    
1 61535U 24184D   24334.10200678  .00004954  00000+0  34271-4 0  9991
2 61535  53.1549  14.9617 0001494  76.0907 284.0279 15.76714336  8311
STARLINK-11295 [DTC]    
1 61536U 24184E   24333.53641067  .00006237  00000+0  42060-4 0  9990
2 61536  53.1547  17.8371 0000851  32.8727 327.2347 15.76736385  8061
STARLINK-11331 [DTC]    
1 61537U 24184F   24333.59002823  .00002608  00000+0  19918-4 0  9992
2 61537  53.1555  17.4552 0000669 105.4745 254.6350 15.76730330  7163
STARLINK-11325 [DTC]    
1 61538U 24184G   24333.39498702  .00012066  00000+0  77619-4 0  9997
2 61538  53.1567  18.3691 0001853 323.6598  36.4297 15.76728280  7131
STARLINK-11332 [DTC]    
1 61539U 24184H   24333.13098781 -.00001043  00000+0 -23741-5 0  9996
2 61539  53.1603  19.5704 0001655  89.9537 270.1673 15.76716809  7090
STARLINK-11350 [DTC]    
1 61540U 24184J   24334.14585979 -.00001470  00000+0 -49841-5 0  9993
2 61540  53.1548  14.5149 0001311  94.9738 265.1432 15.76714889  8326
STARLINK-11357 [DTC]    
1 61541U 24184K   24333.57049259 -.00001260  00000+0 -37031-5 0  9991
2 61541  53.1557  17.3243 0000830  66.9272 293.1836 15.76728033  7166
