OBJECT_NAME,OBJECT_ID,EPOCH,MEAN_MOTION,ECCENTRICITY,INCLINATION,RA_OF_ASC_NODE,ARG_OF_PERICENTER,MEAN_ANOMALY,EPHEMERIS_TYPE,CLASSIFICATION_TYPE,NORAD_CAT_ID,ELEMENT_SET_NO,REV_AT_EPOCH,BSTAR,MEAN_MOTION_DOT,MEAN_MOTION_DDOT
STARLINK-32201,2024-183D,2024-11-28T19:57:50.324544,15.39619568,.000197,53.1599,155.8139,94.1198,266.0032,0,U,61512,999,810,.12431E-3,.4575E-4,0
STARLINK-32030,2024-183E,2024-11-28T19:44:36.635136,15.39609010,.0000818,53.1590,156.4716,85.8136,274.2963,0,U,61513,999,818,.56647E-4,.1867E-4,0
STARLINK-31837,2024-183F,2024-11-28T22:02:37.741632,15.49312553,.0001048,53.1593,154.9283,81.5421,278.5707,0,U,61514,999,822,.93864E-5,.74E-6,0
STARLINK-32136,2024-183G,2024-11-28T21:25:15.822336,15.39605860,.0000865,53.1595,156.1989,87.3623,272.7481,0,U,61515,999,821,.34561E-4,.983E-5,0
STARLINK-32047,2024-183H,2024-11-28T18:56:20.976288,15.49309946,.000096,53.1591,155.5455,69.6309,290.4803,0,U,61516,999,819,.28499E-4,.1137E-4,0
STARLINK-31756,2024-183J,2024-11-28T22:24:23.708736,15.39626290,.0001137,53.1615,153.5507,94.5190,265.5945,0,U,61517,999,823,-.56962E-4,-.2677E-4,0
STARLINK-32172,2024-183K,2024-11-28T22:01:08.625216,15.49314281,.0000926,53.1623,154.9195,80.1874,279.9239,0,U,61518,999,821,.54739E-5,-.143E-5,0
STARLINK-32338,2024-183L,2024-11-28T22:00:39.079008,15.49307561,.0000899,53.1594,154.9207,96.4007,263.7104,0,U,61519,999,821,.24191E-4,.898E-5,0
STARLINK-32306,2024-183M,2024-11-28T22:00:11.303136,15.49291066,.0001079,53.1601,154.9176,70.9805,289.1321,0,U,61520,999,821,-.23129E-4,-.1733E-4,0
STARLINK-32297,2024-183N,2024-11-28T20:26:46.119552,15.49312962,.0000729,53.1606,155.2255,88.4266,271.6826,0,U,61521,999,821,.10322E-4,.126E-5,0
STARLINK-32260,2024-183P,2024-11-28T18:53:22.396992,15.49327107,.0001777,53.1614,155.5325,111.4656,248.6542,0,U,61522,999,819,-.22273E-4,-.1688E-4,0
STARLINK-32305,2024-183Q,2024-11-28T20:25:17.266656,15.49302659,.0001078,53.1613,155.2200,88.6530,271.4602,0,U,61523,999,820,.43701E-4,.1982E-4,0
STARLINK-32296,2024-183R,2024-11-28T20:25:46.578720,15.49315549,.0000761,53.1571,155.2174,63.3071,296.8016,0,U,61524,999,820,.14906E-4,.381E-5,0
STARLINK-32298,2024-183S,2024-11-28T20:24:47.366208,15.49313692,.000075,53.1584,155.2155,94.2913,265.8182,0,U,61525,999,820,.13564E-4,.307E-5,0
STARLINK-32293,2024-183T,2024-11-28T20:24:18.310752,15.49301550,.0001257,53.1594,155.2151,87.4661,272.6492,0,U,61526,999,820,.13737E-5,-.372E-5,0
STARLINK-32313,2024-183U,2024-11-28T20:23:18.337056,15.49314241,.0000604,53.1576,155.2068,87.8769,272.2310,0,U,61527,999,820,.16356E-4,.462E-5,0
STARLINK-32319,2024-183V,2024-11-28T20:23:47.898816,15.49317906,.000079,53.1606,155.2098,38.2068,321.8997,0,U,61528,999,820,-.68647E-5,-.83E-5,0
STARLINK-32351,2024-183W,2024-11-28T19:37:53.992992,15.39634123,.000091,53.1611,156.4394,91.9478,268.1631,0,U,61529,999,814,.10665E-3,.3871E-4,0
STARLINK-32261,2024-183X,2024-11-28T21:18:33.713280,15.39639853,.0001091,53.1595,156.1651,125.4383,234.6724,0,U,61530,999,821,-.206E-4,-.1224E-4,0
STARLINK-32358,2024-183Y,2024-11-28T19:31:13.917792,15.39610196,.0000395,53.1614,156.4064,126.2183,233.8858,0,U,61531,999,809,.83142E-5,-.66E-6,0
STARLINK-11354 [DTC],2024-184A,2024-11-28T13:13:32.479968,15.76677669,.0000739,53.1564,17.9364,73.1615,286.9487,0,U,61532,999,806,.45532E-4,.6788E-4,0
STARLINK-11323 [DTC],2024-184B,2024-11-28T14:30:44.784000,15.76719379,.0001501,53.1555,17.5539,70.4114,289.7068,0,U,61533,999,716,.22079E-5,-.294E-5,0
STARLINK-11338 [DTC],2024-184C,2024-11-29T02:47:59.373024,15.76709365,.0001452,53.1508,15.0595,72.9520,287.1659,0,U,61534,999,815,.12984E-4,.1469E-4,0
STARLINK-11362 [DTC],2024-184D,2024-11-29T02:26:53.385792,15.76714336,.0001494,53.1549,14.9617,76.0907,284.0279,0,U,61535,999,831,.34271E-4,.4954E-4,0
STARLINK-11295 [DTC],2024-184E,2024-11-28T12:52:25.881888,15.76736385,.0000851,53.1547,17.8371,32.8727,327.2347,0,U,61536,999,806,.4206E-4,.6237E-4,0
STARLINK-11331 [DTC],2024-184F,2024-11-28T14:09:38.439072,15.76730330,.0000669,53.1555,17.4552,105.4745,254.6350,0,U,61537,999,716,.19918E-4,.2608E-4,0
STARLINK-11325 [DTC],2024-184G,2024-11-28T09:28:46.878528,15.76728280,.0001853,53.1567,18.3691,323.6598,36.4297,0,U,61538,999,713,.77619E-4,.12066E-3,0
STARLINK-11332 [DTC],2024-184H,2024-11-28T03:08:37.346784,15.76716809,.0001655,53.1603,19.5704,89.9537,270.1673,0,U,61539,999,709,-.23741E-5,-.1043E-4,0
STARLINK-11350 [DTC],2024-184J,2024-11-29T03:30:02.285856,15.76714889,.0001311,53.1548,14.5149,94.9738,265.1432,0,U,61540,999,832,-.49841E-5,-.147E-4,0
STARLINK-11357 [DTC],2024-184K,2024-11-28T13:41:30.559776,15.76728033,.000083,53.1557,17.3243,66.9272,293.1836,0,U,61541,999,716,-.37031E-5,-.126E-4,0
